ONEWEB-0264             
1 48982U 21060R   23271.51173791  .00000134  00000+0  31595-3 0  9992
2 48982  87.9023  66.3561 0001741  90.3581 269.7749 13.16597586110263
ONEWEB-0266             
1 48984U 21060T   23270.69794304 -.00000334  00000+0 -90844-3 0  9997
2 48984  87.9014  66.5049 0001620  90.0774 270.0542 13.16594571110150
ONEWEB-0267             
1 48985U 21060U   23271.46849529 -.00000023  00000+0 -94192-4 0  9990
2 48985  87.9017  66.3522 0002204  92.1559 267.9824 13.16594767110257
ONEWEB-0268             
1 48986U 21060V   23270.98083589  .00000023  00000+0  25636-4 0  9998
2 48986  87.9020  66.4524 0001680  94.6908 265.4414 13.16597620110458
ONEWEB-0269             
1 48987U 21060W   23271.49382446  .00000028  00000+0  39286-4 0  9991
2 48987  87.9109  66.3670 0001641  93.2285 266.9034 13.16593589110306
ONEWEB-0270             
1 48988U 21060X   23271.51071511  .00000088  00000+0  19761-3 0  9994
2 48988  87.9016  66.3604 0002255  78.1557 281.9826 13.16596127110359
ONEWEB-0271             
1 48989U 21060Y   23271.49805073  .00000164  00000+0  39405-3 0  9992
2 48989  87.9016  66.3386 0002186  86.8270 273.3111 13.16596239110332
ONEWEB-0272             
1 48990U 21060Z   23270.83728858 -.00000078  00000+0 -23757-3 0  9995
2 48990  87.9018  66.4943 0002078  89.7078 270.4291 13.16594205110208
